EUTELSAT HOTBIRD 13G    
1 54225U 22146A   26198.09836376  .00000000  00000+0  00000+0 0  9999
2 54225   0.0170 226.6807 0001988 311.5994 165.0718  1.00270077  7769
ZHONGXING-19            
1 54230U 22148A   26198.15762994  .00000000  00000+0  00000+0 0  9998
2 54230   0.0218  65.5186 0003148  69.5138  19.8882  1.00269911 13689
GALAXY 31 (G-31)        
1 54243U 22153A   26198.10141949  .00000003  00000+0  00000+0 0  9997
2 54243   0.0167  92.0034 0001060  27.4506  90.9596  1.00271782  7433
GALAXY 32 (G-32)        
1 54244U 22153B   26198.10731285 -.00000184  00000+0  00000+0 0  9997
2 54244   0.0103  47.6784 0001364 357.9732 196.9056  1.00272443 13442
EUTELSAT 10B            
1 54259U 22157A   26198.10391889  .00000057  00000+0  00000+0 0  9997
2 54259   0.0601  95.4187 0001535  13.1842 233.7007  1.00266829 13326
GALAXY 35 (G-35)        
1 54741U 22170A   26198.10687950 -.00000172  00000+0  00000+0 0  9994
2 54741   0.0149  78.9995 0001839  37.2821 124.0074  1.00272255 13194
GALAXY 36 (G-36)        
1 54742U 22170B   26198.10774618 -.00000195  00000+0  00000+0 0  9998
2 54742   0.0137 132.7692 0002580 325.9765 145.9684  1.00271871 13072
METEOSAT-12 (MTG-I1)    
1 54743U 22170C   26198.10947382 -.00000019  00000+0  00000+0 0  9994
2 54743   0.7271  20.0507 0003888  81.6612 232.2835  1.00268249 13277
SHIJIAN-23 (SJ-23)      
1 55131U 23002A   26197.75892730 -.00000366  00000+0  00000+0 0  9992
2 55131   3.7915  77.9394 0003420 272.3811 345.4914  1.00076137 12800
APSTAR-6E               
1 55239U 23005A   26197.74930030 -.00000329  00000+0  00000+0 0  9998
2 55239   0.0553 292.4334 0001270 338.8855  66.9853  1.00265554 18987
USA 342                 
1 55263U 23008A   26196.34785685  .00000000  00000+0  00000+0 0  9992
2 55263   0.0068  33.1422 0000237  23.5747  25.6345  1.00268904 12796
LDPE-3A                 
1 55264U 23008B   26198.03447389 -.00000285  00000+0  00000+0 0  9993
2 55264   2.4239  81.2943 0001550  75.2533 281.0792  0.99149475 12108
ELEKTRO-L 4             
1 55506U 23016A   26197.72123865 -.00000069  00000+0  00000+0 0  9996
2 55506   0.1167 278.3930 0001528 256.3966 185.1911  1.00270651 12633
AMAZONAS NEXUS          
1 55508U 23017A   26198.10568626 -.00000293  00000+0  00000+0 0  9999
2 55508   0.0348  44.1364 0004412  43.3508 184.4819  1.00269796  7345
ZHONGXING-26            
1 55686U 23023A   26197.79371900 -.00000364  00000+0  00000+0 0  9993
2 55686   0.0634  71.3638 0003293  31.3837 242.7195  1.00269487 12522
LUCH-5X (OLYMP-K 2)     
1 55841U 23031A   26197.76088387  .00000022  00000+0  00000+0 0  9996
2 55841   0.0283  94.5630 0001121 189.9934 345.9278  1.00273578 12232
GAOFEN-13 02            
1 55912U 23036A   26198.19419888 -.00000228  00000+0  00000+0 0  9991
2 55912   1.0285   4.8500 0003674 337.2502 171.0768  1.00274027 12397
SES-18                  
1 55970U 23038A   26198.10488617 -.00000111  00000+0  00000+0 0  9995
2 55970   0.0477 249.3993 0000771 313.7434  26.4423  1.00270455 12407
SES-19                  
1 55971U 23038B   26197.74223181  .00000077  00000+0  00000+0 0  9998
2 55971   0.0105  23.6874 0001559  89.8174 313.3459  1.00270104 12389
INTELSAT 40E (IS-40E)   
1 56174U 23052A   26198.10731285 -.00000184  00000+0  00000+0 0  9990
2 56174   0.0147  80.4704 0002268  63.5078  98.5826  1.00271706 12125
VIASAT-3 F1             
1 56370U 23060A   26195.82648433  .00000000  00000+0  00000+0 0  9991
2 56370   0.0149  26.8771 0000771  79.6667  34.7004  1.00270317 11713
ARCTURUS                
1 56371U 23060B   26198.09538992 -.00000355  00000+0  00000+0 0  9996
2 56371   2.8487  79.5684 0001100 132.3516 218.5679  1.00593851 11759
GS-1                    
1 56372U 23060C   26197.78661229 -.00000233  00000+0  00000+0 0  9997
2 56372   2.7990  79.4806 0003361 280.4391 307.1481  1.00266298  7832
BEIDOU-3 G4             
1 56564U 23066A   26198.22432700 -.00000291  00000+0  00000+0 0  9990
2 56564   0.4589 339.5448 0004940 185.8717 350.4532  1.00271933 11699
ARABSAT-7B (BADR-8)     
1 56757U 23075A   26198.09794711  .00000134  00000+0  00000+0 0  9997
2 56757   0.0730  29.6044 0003489   2.9957 323.5756  1.00273192 11416
NVS-01 (IRNSS-1J)       
1 56759U 23076A   26198.03447389 -.00000346  00000+0  00000+0 0  9996
2 56759   2.0970 242.9807 0003102  20.3700 173.3237  1.00277841 11415
NUSANTARA TIGA (SATRIA) 
1 57045U 23086A   26198.15416325 -.00000246  00000+0  00000+0 0  9994
2 57045   0.0358  14.6903 0002121 321.5299 160.2438  1.00268137 10068
H2SAT (HEINRICH HERTZ)  
1 57213U 23093A   26198.10947382 -.00000008  00000+0  00000+0 0  9992
2 57213   0.0265 101.0885 0000278 342.0723 251.8672  1.00274972 11212
SYRACUSE 4B             
1 57214U 23093B   26198.10947382 -.00000064  00000+0  00000+0 0  9995
2 57214   0.0181  53.3380 0000238 198.8878  75.6463  1.00272059  7267
JUPITER 3 (ECHOSTAR 24) 
1 57479U 23108A   26197.44693972 -.00000161  00000+0  00000+0 0  9992
2 57479   0.0123  42.7338 0001096  70.4132 246.8438  1.00271846 10948
GALAXY 37 (G-37)        
1 57493U 23112A   26198.04710456  .00000000  00000+0  00000+0 0  9998
2 57493   0.0192  53.5787 0001976  61.0822  70.1764  1.00269763 10841
