OBJECT_NAME,OBJECT_ID,EPOCH,MEAN_MOTION,ECCENTRICITY,INCLINATION,RA_OF_ASC_NODE,ARG_OF_PERICENTER,MEAN_ANOMALY,EPHEMERIS_TYPE,CLASSIFICATION_TYPE,NORAD_CAT_ID,ELEMENT_SET_NO,REV_AT_EPOCH,BSTAR,MEAN_MOTION_DOT,MEAN_MOTION_DDOT
EUTELSAT HOTBIRD 13G,2022-146A,2026-07-17T02:21:38.628864,1.00270077,.0001988,0.0170,226.6807,311.5994,165.0718,0,U,54225,999,776,0,0,0
ZHONGXING-19,2022-148A,2026-07-17T03:46:59.226816,1.00269911,.0003148,0.0218,65.5186,69.5138,19.8882,0,U,54230,999,1368,0,0,0
GALAXY 31 (G-31),2022-153A,2026-07-17T02:26:02.643936,1.00271782,.000106,0.0167,92.0034,27.4506,90.9596,0,U,54243,999,743,0,.3E-7,0
GALAXY 32 (G-32),2022-153B,2026-07-17T02:34:31.830240,1.00272443,.0001364,0.0103,47.6784,357.9732,196.9056,0,U,54244,999,1344,0,-.184E-5,0
EUTELSAT 10B,2022-157A,2026-07-17T02:29:38.592096,1.00266829,.0001535,0.0601,95.4187,13.1842,233.7007,0,U,54259,999,1332,0,.57E-6,0
GALAXY 35 (G-35),2022-170A,2026-07-17T02:33:54.388800,1.00272255,.0001839,0.0149,78.9995,37.2821,124.0074,0,U,54741,999,1319,0,-.172E-5,0
GALAXY 36 (G-36),2022-170B,2026-07-17T02:35:09.269952,1.00271871,.000258,0.0137,132.7692,325.9765,145.9684,0,U,54742,999,1307,0,-.195E-5,0
METEOSAT-12 (MTG-I1),2022-170C,2026-07-17T02:37:38.538048,1.00268249,.0003888,0.7271,20.0507,81.6612,232.2835,0,U,54743,999,1327,0,-.19E-6,0
SHIJIAN-23 (SJ-23),2023-002A,2026-07-16T18:12:51.318720,1.00076137,.000342,3.7915,77.9394,272.3811,345.4914,0,U,55131,999,1280,0,-.366E-5,0
APSTAR-6E,2023-005A,2026-07-16T17:58:59.545920,1.00265554,.000127,0.0553,292.4334,338.8855,66.9853,0,U,55239,999,1898,0,-.329E-5,0
USA 342,2023-008A,2026-07-15T08:20:54.831840,1.00268904,.0000237,0.0068,33.1422,23.5747,25.6345,0,U,55263,999,1279,0,0,0
LDPE-3A,2023-008B,2026-07-17T00:49:38.544096,0.99149475,.000155,2.4239,81.2943,75.2533,281.0792,0,U,55264,999,1210,0,-.285E-5,0
ELEKTRO-L 4,2023-016A,2026-07-16T17:18:35.019360,1.00270651,.0001528,0.1167,278.3930,256.3966,185.1911,0,U,55506,999,1263,0,-.69E-6,0
AMAZONAS NEXUS,2023-017A,2026-07-17T02:32:11.292864,1.00269796,.0004412,0.0348,44.1364,43.3508,184.4819,0,U,55508,999,734,0,-.293E-5,0
ZHONGXING-26,2023-023A,2026-07-16T19:02:57.321600,1.00269487,.0003293,0.0634,71.3638,31.3837,242.7195,0,U,55686,999,1252,0,-.364E-5,0
LUCH-5X (OLYMP-K 2),2023-031A,2026-07-16T18:15:40.366368,1.00273578,.0001121,0.0283,94.5630,189.9934,345.9278,0,U,55841,999,1223,0,.22E-6,0
GAOFEN-13 02,2023-036A,2026-07-17T04:39:38.783232,1.00274027,.0003674,1.0285,4.8500,337.2502,171.0768,0,U,55912,999,1239,0,-.228E-5,0
SES-18,2023-038A,2026-07-17T02:31:02.165088,1.00270455,.0000771,0.0477,249.3993,313.7434,26.4423,0,U,55970,999,1240,0,-.111E-5,0
SES-19,2023-038B,2026-07-16T17:48:48.828384,1.00270104,.0001559,0.0105,23.6874,89.8174,313.3459,0,U,55971,999,1238,0,.77E-6,0
INTELSAT 40E (IS-40E),2023-052A,2026-07-17T02:34:31.830240,1.00271706,.0002268,0.0147,80.4704,63.5078,98.5826,0,U,56174,999,1212,0,-.184E-5,0
VIASAT-3 F1,2023-060A,2026-07-14T19:50:08.246112,1.00270317,.00007716,0.0149,26.8771,79.6667,34.7004,0,U,56370,999,1171,0,0,0
ARCTURUS,2023-060B,2026-07-17T02:17:21.689088,1.00593851,.00011,2.8487,79.5684,132.3516,218.5679,0,U,56371,999,1175,0,-.355E-5,0
GS-1,2023-060C,2026-07-16T18:52:43.301856,1.00266298,.0003361,2.7990,79.4806,280.4391,307.1481,0,U,56372,999,783,0,-.233E-5,0
BEIDOU-3 G4,2023-066A,2026-07-17T05:23:01.852800,1.00271933,.000494,0.4589,339.5448,185.8717,350.4532,0,U,56564,999,1169,0,-.291E-5,0
ARABSAT-7B (BADR-8),2023-075A,2026-07-17T02:21:02.630304,1.00273192,.0003489,0.0730,29.6044,2.9957,323.5756,0,U,56757,999,1141,0,.134E-5,0
NVS-01 (IRNSS-1J),2023-076A,2026-07-17T00:49:38.544096,1.00277841,.0003102,2.0970,242.9807,20.3700,173.3237,0,U,56759,999,1141,0,-.346E-5,0
NUSANTARA TIGA (SATRIA),2023-086A,2026-07-17T03:41:59.704800,1.00268137,.0002121,0.0358,14.6903,321.5299,160.2438,0,U,57045,999,1006,0,-.246E-5,0
H2SAT (HEINRICH HERTZ),2023-093A,2026-07-17T02:37:38.538048,1.00274972,.0000278,0.0265,101.0885,342.0723,251.8672,0,U,57213,999,1121,0,-.8E-7,0
SYRACUSE 4B,2023-093B,2026-07-17T02:37:38.538048,1.00272059,.0000238,0.0181,53.3380,198.8878,75.6463,0,U,57214,999,726,0,-.64E-6,0
JUPITER 3 (ECHOSTAR 24),2023-108A,2026-07-16T10:43:35.591808,1.00271846,.0001096,0.0123,42.7338,70.4132,246.8438,0,U,57479,999,1094,0,-.161E-5,0
GALAXY 37 (G-37),2023-112A,2026-07-17T01:07:49.833984,1.00269763,.0001976,0.0192,53.5787,61.0822,70.1764,0,U,57493,999,1084,0,0,0
